LUCH 5V                 
1 39727U 14023A   17126.85604845 -.00000292  00000-0  00000-0 0  9999
2 39727   2.7869 299.1320 0002305 109.6853 218.9772  1.00274359529148
KAZSAT-3                
1 39728U 14023B   17126.21458545  .00000039  00000-0  00000-0 0  9992
2 39728   0.0173 311.4745 0001251 157.0052 251.5303  1.00274148  9078
EUTELSAT 3B             
1 39773U 14030A   17126.85882587  .00000001  00000-0  00000-0 0  9996
2 39773   0.0689 337.9600 0001994  69.8458 129.3496  1.00273194 10704
ASIASAT 8               
1 40107U 14046A   17126.38742776 -.00000053  00000-0  00000-0 0  9997
2 40107   0.0486  91.8940 0001078 290.7373 337.3700  1.00272294 68789
ASIASAT 6               
1 40141U 14052A   17126.89357581 -.00000381  00000-0  00000-0 0  9998
2 40141   0.0139 107.3227 0000980 291.0864 268.1152  1.00270109  9682
OPTUS 10                
1 40146U 14054A   17125.92233618 -.00000095  00000-0  00000-0 0  9994
2 40146   0.0784  36.8909 0001777 359.8633 323.2539  1.00273808  9746
MEASAT-3B               
1 40147U 14054B   17126.12311841 -.00000263  00000-0  00000-0 0  9990
2 40147   0.0450  62.3405 0002477 327.1299 330.5398  1.00271433  9539
LUCH (OLYMP)            
1 40258U 14058A   17126.99304103  .00000049  00000-0  00000-0 0  9996
2 40258   0.0237 147.9019 0001234 269.7346 174.7819  1.00272519  9565
HIMAWARI-8              
1 40267U 14060A   17125.98704758 -.00000298  00000-0  00000-0 0  9994
2 40267   0.0152  58.3235 0001093  14.3285 287.3600  1.00268876  9385
IRNSS-1C                
1 40269U 14061A   17126.84208660 -.00000183  00000-0  00000-0 0  9997
2 40269   3.0987 251.0594 0018804   8.1386 351.8987  1.00271937  9317
INTELSAT 30 (IS-30)     
1 40271U 14062A   17125.16795219 -.00000173  00000-0  00000-0 0  9995
2 40271   0.0080 260.5524 0001438 195.1753  92.9023  1.00270963  9377
ARSAT 1                 
1 40272U 14062B   17126.42271795 -.00000279  00000-0  00000-0 0  9991
2 40272   0.0147 134.8849 0001427 264.4943 265.4651  1.00269965  9233
EXPRESS-AM6             
1 40277U 14064A   17126.93243608  .00000079  00000-0  00000-0 0  9993
2 40277   0.0160 296.0212 0000647 161.0958 156.5261  1.00272386  8214
GSAT-16                 
1 40332U 14078A   17125.22694732  .00000062  00000-0  00000-0 0  9991
2 40332   0.0168 256.8486 0006965 169.7356 293.4844  1.00272342  8745
DIRECTV 14              
1 40333U 14078B   17126.53960819 -.00000145  00000-0  00000-0 0  9992
2 40333   0.0162 272.5215 0000715  67.1595 339.9207  1.00272766  8860
YAMAL 401               
1 40345U 14082A   17126.52582444 -.00000248  00000-0  00000-0 0  9997
2 40345   0.0537  85.2608 0001068 336.7494  81.7914  1.00271016  9033
ASTRA 2G                
1 40364U 14089A   17126.29861043  .00000129  00000-0  00000-0 0  9991
2 40364   0.0449  61.2105 0005027 345.6910 313.1371  1.00270473  8598
FENGYUN 2G              
1 40367U 14090A   17126.96227296 -.00000349  00000-0  00000-0 0  9991
2 40367   0.5182 259.7330 0003708 328.8220  87.4855  1.00276602  8661
INMARSAT 5-F2           
1 40384U 15005A   17126.39501215 -.00000305  00000-0  00000-0 0  9992
2 40384   0.0194 266.3908 0000358  56.1346 349.1099  1.00270124  8291
ABS-3A                  
1 40424U 15010A   17125.38737421 -.00000048  00000-0  00000-0 0  9995
2 40424   0.0130 287.4310 0002014  37.8412  34.7102  1.00272227  8038
EUTELSAT 115 WEST B     
1 40425U 15010B   17125.69758237 -.00000047  00000-0  00000-0 0  9997
2 40425   0.0069 154.0597 0000329   3.0537 202.8837  1.00271844  8055
EXPRESS-AM7             
1 40505U 15012A   17126.89077056  .00000132  00000-0  00000-0 0  9998
2 40505   0.0021 188.0633 0002273 193.2600 204.2622  1.00273062  7986
IRNSS-1D                
1 40547U 15018A   17126.88609454 -.00000338  00000-0  00000-0 0  9991
2 40547  29.1534 295.6828 0019955 177.8258 182.1081  1.00278088  7623
BEIDOU I1-S             
1 40549U 15019A   17126.52193395 -.00000142  00000-0  00000-0 0  9990
2 40549  54.4360 334.2437 0039814 181.4186 347.0203  1.00251218  7709
THOR 7                  
1 40613U 15022A   17126.37847002 -.00000029  00000-0  00000-0 0  9994
2 40613   0.0393  99.9100 0002670 298.1584 321.9471  1.00271103  7459
TURKMENALEM52E/MONACOSAT
1 40617U 15023A   17126.23261551  .00000083  00000-0  00000-0 0  9992
2 40617   0.0396  56.7476 0003002 348.4893 314.7840  1.00273437  7468
DIRECTV 15              
1 40663U 15026A   17125.66400089 -.00000125  00000-0  00000-0 0  9991
2 40663   0.0051 260.8115 0000301 129.1639 330.0264  1.00271733  7149
SKY MEXICO-1            
1 40664U 15026B   17125.59766853 -.00000256  00000-0  00000-0 0  9993
2 40664   0.0208 268.3800 0002210 132.1771 319.4551  1.00273026  7170
METEOSAT-11 (MSG-4)     
1 40732U 15034A   17126.06399297 -.00000049  00000-0  00000-0 0  9995
2 40732   1.8954 243.4871 0000703 130.1011 230.0193  1.00274090  6660
STAR ONE C4             
1 40733U 15034B   17125.57329278 -.00000287  00000-0  00000-0 0  9997
2 40733   0.0768  76.6586 0003012 320.6852 322.6728  1.00271927  6656
INTELSAT 34 (IS-34)     
1 40874U 15039A   17125.53307507 -.00000307  00000-0  00000-0 0  9998
2 40874   0.0217 269.2592 0000208 328.6907 122.0481  1.00270271  6290
EUTELSAT 8 WEST B       
1 40875U 15039B   17126.39878615 -.00000085  00000-0  00000-0 0  9990
2 40875   0.0721  25.5138 0003142   8.6452 325.8579  1.00272930  6318
GSAT-6                  
1 40880U 15041A   17126.14650841 -.00000185  00000-0  00000-0 0  9992
2 40880   0.0579 106.4185 0006636 181.2603  72.2452  1.00270887  6270
INMARSAT 5-F3           
1 40882U 15042A   17125.87908235  .00000029  00000-0  00000-0 0  9993
2 40882   0.0203 270.9896 0000250 151.3587 297.6542  1.00271492  6183
TJS-1                   
1 40892U 15046A   17126.82173146 -.00000175  00000-0  00000-0 0  9992
2 40892   0.0443 276.9441 0007419 109.6930 289.0570  1.00271792  6172
EXPRESS-AM8             
1 40895U 15048A   17126.72670429 -.00000130  00000-0  00000-0 0  9993
2 40895   0.0121 279.7887 0000335 131.0276  61.5662  1.00272547  6001
BEIDOU I2-S             
1 40938U 15053A   17126.45233485 -.00000145  00000-0  00000-0 0  9990
2 40938  54.2651 297.1400 0048388 171.9125  12.6697  1.00260729  5989
SKY MUSTER (NBN1A)      
1 40940U 15054A   17125.98815170 -.00000300  00000-0  00000-0 0  9991
2 40940   0.0207 276.9302 0001840 124.0649 319.0149  1.00273070  5907
ARSAT 2                 
1 40941U 15054B   17125.60380002 -.00000246  00000-0  00000-0 0  9991
2 40941   0.0106 120.2853 0001527 286.1989 313.5284  1.00270469  5938
MORELOS 3               
1 40946U 15056A   17125.60844980 -.00000076  00000-0  00000-0 0  9999
2 40946   6.4783 329.7627 0000614 355.6333   4.2162  1.00273520  5907
APSTAR 9                
1 40982U 15059A   17125.98322491 -.00000288  00000-0  00000-0 0  9996
2 40982   0.0126 262.4635 0000791  76.0458  21.4874  1.00269501  5789
TURKSAT 4B              
1 40984U 15060A   17126.23803895  .00000094  00000-0  00000-0 0  9995
2 40984   0.0079 292.7869 0002268 101.8814 325.3465  1.00274376  5741
CHINASAT 2C (ZX 2C)     
1 41021U 15063A   17126.89424814 -.00000343  00000-0  00000-0 0  9991
2 41021   0.0465  78.5336 0002818 310.7931 260.9518  1.00273643  5631
GSAT-15                 
1 41028U 15065A   17126.11769724 -.00000279  00000-0  00000-0 0  9995
2 41028   0.0175 259.7105 0003165 126.7635 333.5386  1.00272005  5489
BADR-7 (ARABSAT-6B)     
1 41029U 15065B   17126.30455560  .00000124  00000-0  00000-0 0  9995
2 41029   0.0469 258.0304 0002265   2.4874  99.4532  1.00270469  5375
LAOSAT 1                
1 41034U 15067A   17126.02072506 -.00000365  00000-0  00000-0 0  9995
2 41034   0.0203 282.2917 0000871 298.7195 138.9784  1.00268256  5462
TELSTAR 12V             
1 41036U 15068A   17126.41821368 -.00000139  00000-0  00000-0 0  9998
2 41036   0.0099 268.7174 0002315 127.6598 323.6386  1.00269880  5255
CHINASAT 1C (ZX 1C)     
1 41103U 15073A   17126.84250446 -.00000169  00000-0  00000-0 0  9992
2 41103   0.0026   7.5540 0003248 311.3327 290.8053  1.00270880  5296
ELEKTRO-L 2             
1 41105U 15074A   17126.84684872 -.00000115  00000-0  00000-0 0  9990
2 41105   0.0864  58.4623 0002045   3.3282 183.9091  1.00270955  5148
COSMOS 2513             
1 41121U 15075A   17126.89287831 -.00000157  00000-0  00000-0 0  9994
2 41121   0.0828  88.9430 0003399 328.2373 209.4216  1.00270762  5221
EXPRESS-AMU1            
1 41191U 15082A   17123.81728236  .00000131  00000-0  00000-0 0  9998
2 41191   0.0043 269.8871 0001745 105.3984 176.9552  1.00274631  5108
GAOFEN 4                
1 41194U 15083A   17126.93624970 -.00000354  00000-0  00000-0 0  9996
2 41194   0.0117  92.1784 0002659 117.7263  97.8313  1.00270843  5113
BELINTERSAT-1           
1 41238U 16001A   17125.89215902  .00000085  00000-0  10000-3 0  9995
2 41238   0.0784  92.8767 0001263 294.3128 209.4130  1.00270659  4899
IRNSS-1E                
1 41241U 16003A   17126.38641692 -.00000263  00000-0  00000-0 0  9990
2 41241  28.7177 115.4099 0019925 187.1481 172.8153  1.00272446  4817
INTELSAT 29E (IS-29E)   
1 41308U 16004A   17125.51790410 -.00000304  00000-0  00000-0 0  9998
2 41308   0.0184 252.5626 0001837 142.4070 325.0424  1.00270072  4773
EUTELSAT 9B             
1 41310U 16005A   17126.35168744  .00000042  00000-0  00000-0 0  9992
2 41310   0.0769 101.3405 0003786 245.1940  13.4521  1.00273730  4739
SES-9                   
1 41380U 16013A   17126.07661755 -.00000366  00000-0  00000-0 0  9997
2 41380   0.0213 302.5861 0001692 107.7405 309.6845  1.00272473  4129
EUTELSAT 65 WEST A      
1 41382U 16014A   17125.55997197 -.00000298  00000-0  00000-0 0  9998
2 41382   0.0519 358.1111 0001866  38.1781 323.7190  1.00273756  4183
IRNSS-1F                
1 41384U 16015A   17126.02623643  .00000132  00000-0  00000-0 0  9992
2 41384   4.2446 266.1444 0021496 176.3711 183.5515  1.00277851  4314
